[{"OBJECT_NAME":"O3B FM10","OBJECT_ID":"2014-083A","EPOCH":"2026-03-11T09:54:27.943488","MEAN_MOTION":5.00115268,"ECCENTRICITY":0.00026511,"INCLINATION":0.0429,"RA_OF_ASC_NODE":348.257,"ARG_OF_PERICENTER":1.066,"MEAN_ANOMALY":10.6675,"EPHEMERIS_TYPE":0,"CLASSIFICATION_TYPE":"U","NORAD_CAT_ID":40348,"ELEMENT_SET_NO":999,"REV_AT_EPOCH":20499,"BSTAR":0,"MEAN_MOTION_DOT":-2.4e-7,"MEAN_MOTION_DDOT":0},{"OBJECT_NAME":"O3B FM11","OBJECT_ID":"2014-083B","EPOCH":"2026-03-15T00:33:56.653632","MEAN_MOTION":5.00115575,"ECCENTRICITY":0.00030887,"INCLINATION":0.0573,"RA_OF_ASC_NODE":0.3012,"ARG_OF_PERICENTER":341.5889,"MEAN_ANOMALY":18.0955,"EPHEMERIS_TYPE":0,"CLASSIFICATION_TYPE":"U","NORAD_CAT_ID":40349,"ELEMENT_SET_NO":999,"REV_AT_EPOCH":20520,"BSTAR":0,"MEAN_MOTION_DOT":-2.0e-7,"MEAN_MOTION_DDOT":0},{"OBJECT_NAME":"O3B FM12","OBJECT_ID":"2014-083C","EPOCH":"2026-03-15T01:12:56.960064","MEAN_MOTION":5.00115981,"ECCENTRICITY":0.00026126,"INCLINATION":0.0566,"RA_OF_ASC_NODE":359.5634,"ARG_OF_PERICENTER":347.4659,"MEAN_ANOMALY":12.9606,"EPHEMERIS_TYPE":0,"CLASSIFICATION_TYPE":"U","NORAD_CAT_ID":40350,"ELEMENT_SET_NO":999,"REV_AT_EPOCH":20521,"BSTAR":0,"MEAN_MOTION_DOT":-2.0e-7,"MEAN_MOTION_DDOT":0},{"OBJECT_NAME":"O3B FM9","OBJECT_ID":"2014-083D","EPOCH":"2026-03-15T01:51:35.172288","MEAN_MOTION":5.00115908,"ECCENTRICITY":0.00027193,"INCLINATION":0.0584,"RA_OF_ASC_NODE":0.4596,"ARG_OF_PERICENTER":352.5981,"MEAN_ANOMALY":6.9352,"EPHEMERIS_TYPE":0,"CLASSIFICATION_TYPE":"U","NORAD_CAT_ID":40351,"ELEMENT_SET_NO":999,"REV_AT_EPOCH":20536,"BSTAR":0,"MEAN_MOTION_DOT":-2.0e-7,"MEAN_MOTION_DDOT":0},{"OBJECT_NAME":"ASTRA 2G","OBJECT_ID":"2014-089A","EPOCH":"2026-03-15T06:05:38.644800","MEAN_MOTION":1.00269178,"ECCENTRICITY":0.00044875,"INCLINATION":0.0201,"RA_OF_ASC_NODE":358.7217,"ARG_OF_PERICENTER":34.8033,"MEAN_ANOMALY":258.9447,"EPHEMERIS_TYPE":0,"CLASSIFICATION_TYPE":"U","NORAD_CAT_ID":40364,"ELEMENT_SET_NO":999,"REV_AT_EPOCH":4102,"BSTAR":0,"MEAN_MOTION_DOT":0,"MEAN_MOTION_DDOT":0},{"OBJECT_NAME":"SES-9","OBJECT_ID":"2016-013A","EPOCH":"2026-03-12T14:21:23.683392","MEAN_MOTION":1.00271324,"ECCENTRICITY":0.0001753,"INCLINATION":0.0283,"RA_OF_ASC_NODE":280.9183,"ARG_OF_PERICENTER":124.7546,"MEAN_ANOMALY":88.1882,"EPHEMERIS_TYPE":0,"CLASSIFICATION_TYPE":"U","NORAD_CAT_ID":41380,"ELEMENT_SET_NO":999,"REV_AT_EPOCH":3647,"BSTAR":0,"MEAN_MOTION_DOT":-3.44e-6,"MEAN_MOTION_DDOT":0},{"OBJECT_NAME":"SES-10","OBJECT_ID":"2017-017A","EPOCH":"2026-03-13T18:29:59.546112","MEAN_MOTION":1.00273246,"ECCENTRICITY":0.00025497,"INCLINATION":0.0225,"RA_OF_ASC_NODE":69.0512,"ARG_OF_PERICENTER":296.9547,"MEAN_ANOMALY":15.9789,"EPHEMERIS_TYPE":0,"CLASSIFICATION_TYPE":"U","NORAD_CAT_ID":42432,"ELEMENT_SET_NO":999,"REV_AT_EPOCH":3279,"BSTAR":0,"MEAN_MOTION_DOT":-2.73e-6,"MEAN_MOTION_DDOT":0},{"OBJECT_NAME":"SES-15","OBJECT_ID":"2017-026A","EPOCH":"2026-03-12T14:49:13.423008","MEAN_MOTION":1.00270524,"ECCENTRICITY":7.066e-5,"INCLINATION":0.0388,"RA_OF_ASC_NODE":330.9168,"ARG_OF_PERICENTER":38.8107,"MEAN_ANOMALY":253.6487,"EPHEMERIS_TYPE":0,"CLASSIFICATION_TYPE":"U","NORAD_CAT_ID":42709,"ELEMENT_SET_NO":999,"REV_AT_EPOCH":646,"BSTAR":0,"MEAN_MOTION_DOT":6.0e-7,"MEAN_MOTION_DDOT":0},{"OBJECT_NAME":"SES-11 (ECHOSTAR 105)","OBJECT_ID":"2017-063A","EPOCH":"2026-03-15T04:32:57.785280","MEAN_MOTION":1.00272076,"ECCENTRICITY":0.00024215,"INCLINATION":0.0312,"RA_OF_ASC_NODE":58.8383,"ARG_OF_PERICENTER":296.3024,"MEAN_ANOMALY":140.9485,"EPHEMERIS_TYPE":0,"CLASSIFICATION_TYPE":"U","NORAD_CAT_ID":42967,"ELEMENT_SET_NO":999,"REV_AT_EPOCH":3078,"BSTAR":0,"MEAN_MOTION_DOT":-9.0e-7,"MEAN_MOTION_DDOT":0},{"OBJECT_NAME":"SES-14","OBJECT_ID":"2018-012B","EPOCH":"2026-03-12T08:21:45.444096","MEAN_MOTION":1.00272273,"ECCENTRICITY":9.0e-5,"INCLINATION":0.0142,"RA_OF_ASC_NODE":73.2078,"ARG_OF_PERICENTER":285.1964,"MEAN_ANOMALY":249.4941,"EPHEMERIS_TYPE":0,"CLASSIFICATION_TYPE":"U","NORAD_CAT_ID":43175,"ELEMENT_SET_NO":999,"REV_AT_EPOCH":605,"BSTAR":0,"MEAN_MOTION_DOT":-2.78e-6,"MEAN_MOTION_DDOT":0},{"OBJECT_NAME":"O3B FM15","OBJECT_ID":"2018-024A","EPOCH":"2026-03-15T03:27:43.843680","MEAN_MOTION":5.00115704,"ECCENTRICITY":0.00026764,"INCLINATION":0.0491,"RA_OF_ASC_NODE":1.4753,"ARG_OF_PERICENTER":348.5914,"MEAN_ANOMALY":9.9247,"EPHEMERIS_TYPE":0,"CLASSIFICATION_TYPE":"U","NORAD_CAT_ID":43231,"ELEMENT_SET_NO":999,"REV_AT_EPOCH":14632,"BSTAR":0,"MEAN_MOTION_DOT":-1.9e-7,"MEAN_MOTION_DDOT":0},{"OBJECT_NAME":"O3B FM16","OBJECT_ID":"2018-024B","EPOCH":"2026-03-15T04:43:08.528736","MEAN_MOTION":5.00115906,"ECCENTRICITY":0.00028027,"INCLINATION":0.0456,"RA_OF_ASC_NODE":3.7624,"ARG_OF_PERICENTER":343.7498,"MEAN_ANOMALY":12.4776,"EPHEMERIS_TYPE":0,"CLASSIFICATION_TYPE":"U","NORAD_CAT_ID":43232,"ELEMENT_SET_NO":999,"REV_AT_EPOCH":14624,"BSTAR":0,"MEAN_MOTION_DOT":-1.9e-7,"MEAN_MOTION_DDOT":0},{"OBJECT_NAME":"O3B FM14","OBJECT_ID":"2018-024C","EPOCH":"2026-03-12T15:19:53.120928","MEAN_MOTION":5.00115666,"ECCENTRICITY":0.00028427,"INCLINATION":0.0439,"RA_OF_ASC_NODE":2.773,"ARG_OF_PERICENTER":349.0319,"MEAN_ANOMALY":8.1868,"EPHEMERIS_TYPE":0,"CLASSIFICATION_TYPE":"U","NORAD_CAT_ID":43233,"ELEMENT_SET_NO":999,"REV_AT_EPOCH":14612,"BSTAR":0,"MEAN_MOTION_DOT":-2.3e-7,"MEAN_MOTION_DDOT":0},{"OBJECT_NAME":"O3B FM13","OBJECT_ID":"2018-024D","EPOCH":"2026-03-13T02:30:24.004800","MEAN_MOTION":5.0011563,"ECCENTRICITY":0.00037966,"INCLINATION":0.0487,"RA_OF_ASC_NODE":334.7219,"ARG_OF_PERICENTER":336.321,"MEAN_ANOMALY":48.9207,"EPHEMERIS_TYPE":0,"CLASSIFICATION_TYPE":"U","NORAD_CAT_ID":43234,"ELEMENT_SET_NO":999,"REV_AT_EPOCH":14625,"BSTAR":0,"MEAN_MOTION_DOT":-2.2e-7,"MEAN_MOTION_DDOT":0},{"OBJECT_NAME":"SES-12","OBJECT_ID":"2018-049A","EPOCH":"2026-03-14T08:57:43.833600","MEAN_MOTION":1.00271135,"ECCENTRICITY":0.00018601,"INCLINATION":0.0192,"RA_OF_ASC_NODE":63.5919,"ARG_OF_PERICENTER":239.6464,"MEAN_ANOMALY":98.1739,"EPHEMERIS_TYPE":0,"CLASSIFICATION_TYPE":"U","NORAD_CAT_ID":43488,"ELEMENT_SET_NO":999,"REV_AT_EPOCH":2846,"BSTAR":0,"MEAN_MOTION_DOT":-2.7e-6,"MEAN_MOTION_DDOT":0},{"OBJECT_NAME":"O3B FM20","OBJECT_ID":"2019-020A","EPOCH":"2026-03-14T20:43:37.600896","MEAN_MOTION":5.00115512,"ECCENTRICITY":0.00027592,"INCLINATION":0.0522,"RA_OF_ASC_NODE":0.0965,"ARG_OF_PERICENTER":341.6917,"MEAN_ANOMALY":18.1985,"EPHEMERIS_TYPE":0,"CLASSIFICATION_TYPE":"U","NORAD_CAT_ID":44112,"ELEMENT_SET_NO":999,"REV_AT_EPOCH":12685,"BSTAR":0,"MEAN_MOTION_DOT":-2.0e-7,"MEAN_MOTION_DDOT":0},{"OBJECT_NAME":"O3B FM19","OBJECT_ID":"2019-020B","EPOCH":"2026-03-15T02:10:30.980640","MEAN_MOTION":5.00115992,"ECCENTRICITY":0.00042132,"INCLINATION":0.0584,"RA_OF_ASC_NODE":353.1915,"ARG_OF_PERICENTER":354.17,"MEAN_ANOMALY":12.6246,"EPHEMERIS_TYPE":0,"CLASSIFICATION_TYPE":"U","NORAD_CAT_ID":44113,"ELEMENT_SET_NO":999,"REV_AT_EPOCH":12673,"BSTAR":0,"MEAN_MOTION_DOT":-2.0e-7,"MEAN_MOTION_DDOT":0}]
